stk.v.4.3 

BEGIN Ephemeris 
 
NumberOfEphemerisPoints		146 
ScenarioEpoch	    2 Jan 2020 10:55:34.581497312 
InterpolationMethod		Lagrange 
InterpolationOrder		5 
CentralBody				Earth 
CoordinateSystem			TEME 
CoordinateSystemEpoch	  2 Jan 2020 10:55:34.581497312 
DistanceUnit			Kilometers 
 
EphemerisTimePosVel 
 
       0.00000000    5642.32169612   -4405.12291547       0.03410957  0.280920457  0.375367770  7.449349899
 END Ephemeris 
